GPS BIIA-10 (PRN 32)    
1 20959U 90103A   15360.78304568  .00000043  00000-0  00000+0 0  9990
2 20959  54.2501 186.4426 0113234  10.3929 349.8635  2.00567315183709
GPS BIIR-2  (PRN 13)    
1 24876U 97035A   15361.09704708  .00000009  00000-0  00000+0 0  9990
2 24876  55.7196 248.3221 0044555 115.9495 244.5929  2.00562234135032
GPS BIIR-3  (PRN 11)    
1 25933U 99055A   15361.17116373 -.00000039  00000-0  00000+0 0  9997
2 25933  51.2887 101.2720 0160432  85.3958 251.9574  2.00566052118854
GPS BIIR-4  (PRN 20)    
1 26360U 00025A   15361.56678347  .00000034  00000-0  00000+0 0  9992
2 26360  53.0706 177.3111 0047967  73.9195 293.4313  2.00562403114551
GPS BIIR-5  (PRN 28)    
1 26407U 00040A   15361.43052758 -.00000083  00000-0  00000+0 0  9994
2 26407  56.6949   6.1013 0202331 266.3132 279.1982  2.00560878113228
GPS BIIR-6  (PRN 14)    
1 26605U 00071A   15361.44468759  .00000008  00000-0  00000+0 0  9997
2 26605  55.2889 246.2430 0085281 248.9955 242.3627  2.00560078110821
GPS BIIR-7  (PRN 18)    
1 26690U 01004A   15361.44681149  .00000035  00000-0  00000+0 0  9998
2 26690  52.9997 180.2973 0166503 250.0835 336.4305  2.00565486109235
GPS BIIR-8  (PRN 16)    
1 27663U 03005A   15361.20359707 -.00000082  00000-0  00000+0 0  9991
2 27663  56.7712   5.8166 0082605  16.3311 130.1397  2.00563464 94586
GPS BIIR-9  (PRN 21)    
1 27704U 03010A   15360.97760626 -.00000018  00000-0  00000+0 0  9991
2 27704  53.5901 120.5881 0230836 254.2080  49.0251  2.00560094 93383
GPS BIIR-10 (PRN 22)    
1 28129U 03058A   15361.19419768  .00000035  00000-0  00000+0 0  9996
2 28129  52.8761 180.3538 0076998 244.4858 114.7249  2.00395184 88090
GPS BIIR-11 (PRN 19)    
1 28190U 04009A   15360.37454909 -.00000056  00000-0  00000+0 0  9990
2 28190  55.6823  67.3080 0111382  37.2741  55.5886  2.00387616 86245
GPS BIIR-12 (PRN 23)    
1 28361U 04023A   15361.22746898  .00000013  00000-0  00000+0 0  9994
2 28361  54.2548 241.9141 0105060 211.0224  16.6734  2.00554008 84346
GPS BIIR-13 (PRN 02)    
1 28474U 04045A   15360.77155970 -.00000020  00000-0  00000+0 0  9996
2 28474  53.9828 119.8473 0153556 234.7279  26.4791  2.00561114 81709
GPS BIIRM-1 (PRN 17)    
1 28874U 05038A   15361.17835730 -.00000057  00000-0  00000+0 0  9997
2 28874  55.8506  64.4629 0110566 247.2766  53.7966  2.00570795 75119
GPS BIIRM-2 (PRN 31)    
1 29486U 06042A   15361.51693206 -.00000065  00000-0  00000+0 0  9990
2 29486  55.7464 303.7574 0084412 331.7040 136.2070  2.00564972 67836
GPS BIIRM-3 (PRN 12)    
1 29601U 06052A   15361.31014055 -.00000083  00000-0  00000+0 0  9997
2 29601  56.7413   4.7384 0055151  34.5338 325.8471  2.00578020 66742
GPS BIIRM-4 (PRN 15)    
1 32260U 07047A   15360.63479379  .00000020  00000-0  00000+0 0  9995
2 32260  53.3849 238.7604 0078352  24.7509 335.7121  2.00551479 60112
GPS BIIRM-5 (PRN 29)    
1 32384U 07062A   15359.59589289 -.00000057  00000-0  00000+0 0  9995
2 32384  55.9022  65.0737 0010862 315.6465 149.4264  2.00567609 58828
GPS BIIRM-6 (PRN 07)    
1 32711U 08012A   15361.04314590 -.00000067  00000-0  00000+0 0  9990
2 32711  55.4687 303.2792 0091250 207.8721 151.6402  2.00562599 57044
GPS BIIRM-8 (PRN 05)    
1 35752U 09043A   15361.31136134  .00000038  00000-0  00000+0 0  9996
2 35752  54.2248 181.3220 0044757  25.1999 198.2857  2.00559785 46627
GPS BIIF-1  (PRN 25)    
1 36585U 10022A   15360.65329803 -.00000083  00000-0  00000+0 0  9994
2 36585  56.0736   1.9507 0047187  37.6699 176.0277  2.00574775 40859
GPS BIIF-2  (PRN 01)    
1 37753U 11036A   15361.40565565 -.00000011  00000-0  00000+0 0  9990
2 37753  55.2029 122.2402 0048125  25.6203  95.9288  2.00565545 32559
GPS BIIF-3  (PRN 24)    
1 38833U 12053A   15361.22643417 -.00000065  00000-0  00000+0 0  9992
2 38833  54.5015 300.7200 0039256  15.1596 344.9628  2.00567175 23634
GPS BIIF-4  (PRN 27)    
1 39166U 13023A   15361.08533193 -.00000059  00000-0  00000+0 0  9996
2 39166  55.5603  61.6579 0028665   8.9839 351.1231  2.00559247 19155
GPS BIIF-5  (PRN 30)    
1 39533U 14008A   15360.58546212 -.00000072  00000-0  00000+0 0  9993
2 39533  54.6545 305.9514 0016542 186.2102 173.7672  2.00565414 13519
GPS BIIF-6  (PRN 06)    
1 39741U 14026A   15360.86254093 -.00000016  00000-0  00000+0 0  9996
2 39741  55.1943 121.7773 0003695 235.1007 124.8289  2.00571400 11793
GPS BIIF-7  (PRN 09)    
1 40105U 14045A   15360.95603875  .00000017  00000-0  00000+0 0  9999
2 40105  54.7722 241.5444 0003282 124.7720 235.3463  2.00563998 10257
GPS BIIF-8  (PRN 03)    
1 40294U 14068A   15361.31849667  .00000040  00000-0  00000+0 0  9991
2 40294  54.9621 181.8869 0003609 204.6776 155.3176  2.00548668  8475
GPS BIIF-9  (PRN 26)    
1 40534U 15013A   15360.96228534 -.00000087  00000-0  00000+0 0  9995
2 40534  55.0446   1.5773 0007039 325.0506  34.9224  2.00562422  5535
GPS BIIF-10  (PRN 08)   
1 40730U 15033A   15361.12276778 -.00000060  00000-0  00000+0 0  9998
2 40730  55.0972  61.5712 0019049 271.4470  88.3896  2.00569405  3291
GPS BIIF-11  (PRN 10)   
1 41019U 15062A   15360.17724825  .00000047  00000-0  00000+0 0  9990
2 41019  54.9791 181.6948 0010289 203.5068 156.4622  2.00563285  1090
